{
  "type": "FeatureCollection",
  "name": "ghmc-wards-sample",
  "crs": { "type": "name", "properties": { "name": "urn:ogc:def:crs:OGC:1.3:CRS84" } },
  "features": [
    {
      "type": "Feature",
      "properties": { "ward_id": "HYD-001", "name": "Secunderabad", "city": "Hyderabad" },
      "geometry": {
        "type": "Polygon",
        "coordinates": [
          [
            [78.49, 17.44],
            [78.515, 17.44],
            [78.515, 17.46],
            [78.49, 17.46],
            [78.49, 17.44]
          ]
        ]
      }
    },
    {
      "type": "Feature",
      "properties": { "ward_id": "HYD-002", "name": "Begumpet", "city": "Hyderabad" },
      "geometry": {
        "type": "Polygon",
        "coordinates": [
          [
            [78.455, 17.425],
            [78.48, 17.425],
            [78.48, 17.445],
            [78.455, 17.445],
            [78.455, 17.425]
          ]
        ]
      }
    },
    {
      "type": "Feature",
      "properties": { "ward_id": "HYD-003", "name": "Kukatpally", "city": "Hyderabad" },
      "geometry": {
        "type": "Polygon",
        "coordinates": [
          [
            [78.38, 17.48],
            [78.415, 17.48],
            [78.415, 17.51],
            [78.38, 17.51],
            [78.38, 17.48]
          ]
        ]
      }
    },
    {
      "type": "Feature",
      "properties": { "ward_id": "HYD-004", "name": "Mehdipatnam", "city": "Hyderabad" },
      "geometry": {
        "type": "Polygon",
        "coordinates": [
          [
            [78.425, 17.385],
            [78.45, 17.385],
            [78.45, 17.405],
            [78.425, 17.405],
            [78.425, 17.385]
          ]
        ]
      }
    },
    {
      "type": "Feature",
      "properties": { "ward_id": "HYD-005", "name": "Charminar", "city": "Hyderabad" },
      "geometry": {
        "type": "Polygon",
        "coordinates": [
          [
            [78.455, 17.355],
            [78.48, 17.355],
            [78.48, 17.375],
            [78.455, 17.375],
            [78.455, 17.355]
          ]
        ]
      }
    }
  ]
}
